GPS BIIR-2  (PRN 13)    
1 24876U 97035A   16256.35689254  .00000047  00000-0  00000+0 0  9993
2 24876  55.6290 238.0539 0038026 113.7813 246.6179  2.00562164140252
GPS BIIR-3  (PRN 11)    
1 25933U 99055A   16256.44159288  .00000015  00000-0  00000+0 0  9996
2 25933  51.4449  89.8243 0165660  90.0128 259.3296  2.00562452124075
GPS BIIR-4  (PRN 20)    
1 26360U 00025A   16256.55830515 -.00000019  00000-0  00000+0 0  9996
2 26360  53.0806 166.4729 0044087  81.8164  87.8509  2.00573634119768
GPS BIIR-5  (PRN 28)    
1 26407U 00040A   16256.45881282 -.00000071  00000-0  00000+0 0  9999
2 26407  56.6905 355.9766 0201243 267.6345 115.0263  2.00569135118445
GPS BIIR-6  (PRN 14)    
1 26605U 00071A   16256.28500275  .00000044  00000-0  00000+0 0  9993
2 26605  55.1990 235.8950 0091534 248.6052 274.2403  2.00518757116039
GPS BIIR-7  (PRN 18)    
1 26690U 01004A   16256.26493141 -.00000020  00000-0  00000+0 0  9990
2 26690  53.0064 169.4447 0174797 253.6214  15.2892  2.00558162114446
GPS BIIR-8  (PRN 16)    
1 27663U 03005A   16255.82699645 -.00000073  00000-0  00000-0 0  9991
2 27663  56.7631 355.7244 0085782  20.8181  23.3667  2.00577185 99802
GPS BIIR-9  (PRN 21)    
1 27704U 03010A   16256.26872322  .00000018  00000-0  00000+0 0  9994
2 27704  53.7031 109.7663 0235970 259.1864  73.8932  2.00577460 98600
GPS BIIR-10 (PRN 22)    
1 28129U 03058A   16256.05578246 -.00000021  00000-0  00000+0 0  9998
2 28129  52.8885 169.4778 0076844 253.4755 105.7023  2.00556313 93298
GPS BIIR-11 (PRN 19)    
1 28190U 04009A   16256.08161366 -.00000003  00000-0  00000+0 0  9997
2 28190  55.8462  56.9436 0103841  48.4504 333.0845  2.00569008 91474
GPS BIIR-12 (PRN 23)    
1 28361U 04023A   16256.41939491  .00000036  00000-0  00000+0 0  9997
2 28361  54.1746 231.2841 0112935 215.8888 323.1124  2.00569794 89567
GPS BIIR-13 (PRN 02)    
1 28474U 04045A   16256.39460730  .00000021  00000-0  00000+0 0  9992
2 28474  54.0897 109.1200 0161078 240.7772 283.6087  2.00568093 86938
GPS BIIRM-1 (PRN 17)    
1 28874U 05038A   16256.46844772 -.00000006  00000-0  00000+0 0  9993
2 28874  56.0103  54.1504 0113828 250.0523  72.4355  2.00555677 80332
GPS BIIRM-2 (PRN 31)    
1 29486U 06042A   16256.34374328  .00000017  00000-0  00000+0 0  9992
2 29486  55.5783 293.3973 0084077 336.5446 174.7826  2.00578384 73043
GPS BIIRM-3 (PRN 12)    
1 29601U 06052A   16255.07943209 -.00000075  00000-0  00000+0 0  9996
2 29601  56.7346 354.6760 0058823  43.6280 316.8637  2.00565457 71928
GPS BIIRM-4 (PRN 15)    
1 32260U 07047A   16255.88872239  .00000033  00000-0  00000+0 0  9992
2 32260  53.3025 227.8997 0083420  27.2512 333.1716  2.00564225 65330
GPS BIIRM-5 (PRN 29)    
1 32384U 07062A   16255.18873418 -.00000007  00000-0  00000+0 0  9991
2 32384  56.0672  54.7641 0005891 343.8039   6.1215  2.00554773 64040
GPS BIIRM-6 (PRN 07)    
1 32711U 08012A   16256.29907167  .00000017  00000-0  00000+0 0  9993
2 32711  55.3033 292.8358 0101028 210.2081 149.2744  2.00568833 62260
GPS BIIRM-8 (PRN 05)    
1 35752U 09043A   16256.46805881 -.00000018  00000-0  00000+0 0  9997
2 35752  54.2278 170.7791 0046362  26.3915 121.4093  2.00572390 51847
GPS BIIF-1  (PRN 25)    
1 36585U 10022A   16255.18504037 -.00000075  00000-0  00000+0 0  9991
2 36585  56.0547 351.6824 0054256  43.5069   2.5046  2.00560780 46065
GPS BIIF-2  (PRN 01)    
1 37753U 11036A   16256.45202234  .00000024  00000-0  00000+0 0  9993
2 37753  55.3033 111.8595 0057576  29.2505 301.8490  2.00559983 37779
GPS BIIF-3  (PRN 24)    
1 38833U 12053A   16256.48044378  .00000020  00000-0  00000+0 0  9995
2 38833  54.3330 290.0193 0045471  19.9654 340.2805  2.00556961 28853
GPS BIIF-4  (PRN 27)    
1 39166U 13023A   16256.33982786 -.00000012  00000-0  00000+0 0  9993
2 39166  55.7202  51.2605 0037400  16.5929 343.5546  2.00566613 24378
GPS BIIF-5  (PRN 30)    
1 39533U 14008A   16256.33596912  .00000011  00000-0  00000+0 0  9995
2 39533  54.4884 295.2757 0024105 185.2703 174.7744  2.00551909 18748
GPS BIIF-6  (PRN 06)    
1 39741U 14026A   16256.12279719  .00000021  00000-0  00000+0 0  9997
2 39741  55.2925 111.3908 0004424 272.1340  87.9065  2.00553067 17012
GPS BIIF-7  (PRN 09)    
1 40105U 14045A   16256.20830823  .00000038  00000-0  00000+0 0  9990
2 40105  54.6951 231.0500 0003364 135.2262 224.7922  2.00550044 15464
GPS BIIF-8  (PRN 03)    
1 40294U 14068A   16256.08388277 -.00000018  00000-0  00000+0 0  9990
2 40294  54.9707 171.5591 0002580 308.6962  51.3007  2.00569171 13686
GPS BIIF-9  (PRN 26)    
1 40534U 15013A   16255.72711752 -.00000075  00000-0  00000-0 0  9990
2 40534  55.0184 351.0389 0010005 342.9798  17.0197  2.00575148 10310
GPS BIIF-10  (PRN 08)   
1 40730U 15033A   16255.88467947 -.00000014  00000-0  00000-0 0  9994
2 40730  55.2562  51.0762 0019167 297.7385  62.0935  2.00555203  8507
GPS BIIF-11  (PRN 10)   
1 41019U 15062A   16255.43686638 -.00000019  00000-0  00000-0 0  9993
2 41019  54.9832 171.3607 0017974 204.3304 155.6054  2.00562662  6312
GPS BIIF-12  (PRN 32)   
1 41328U 16007A   16255.52247612  .00000043  00000-0  00000-0 0  9997
2 41328  54.9571 231.1878 0008338 237.7463 122.1660  2.00566892  4375
